{
    "links": {
        "self": "http://www.neowsapp.com/rest/v1/neo/3836174?api_key=iIulBulltgU6a56xZRHN4H3l9WmuAYTsLGpBGhQ2"
    },
    "id": "3836174",
    "neo_reference_id": "3836174",
    "name": "(2018 VX6)",
    "designation": "2018 VX6",
    "nasa_jpl_url": "http://ssd.jpl.nasa.gov/sbdb.cgi?sstr=3836174",
    "absolute_magnitude_h": 23.4,
    "estimated_diameter": {
        "kilometers": {
            "estimated_diameter_min": 0.0555334912,
            "estimated_diameter_max": 0.1241766613
        },
        "meters": {
            "estimated_diameter_min": 55.5334911581,
            "estimated_diameter_max": 124.1766612574
        },
        "miles": {
            "estimated_diameter_min": 0.0345069009,
            "estimated_diameter_max": 0.0771597762
        },
        "feet": {
            "estimated_diameter_min": 182.1964991311,
            "estimated_diameter_max": 407.4037573197
        }
    },
    "is_potentially_hazardous_asteroid": false,
    "close_approach_data": [
        {
            "close_approach_date": "1947-06-25",
            "close_approach_date_full": "1947-Jun-25 14:16",
            "epoch_date_close_approach": -710675040000,
            "relative_velocity": {
                "kilometers_per_second": "14.9059976378",
                "kilometers_per_hour": "53661.5914962186",
                "miles_per_hour": "33343.2261160809"
            },
            "miss_distance": {
                "astronomical": "0.067368977",
                "lunar": "26.206532053",
                "kilometers": "10078255.46327899",
                "miles": "6262337.556430462"
            },
            "orbiting_body": "Mars"
        },
        {
            "close_approach_date": "1955-11-08",
            "close_approach_date_full": "1955-Nov-08 01:45",
            "epoch_date_close_approach": -446508900000,
            "relative_velocity": {
                "kilometers_per_second": "25.1700557434",
                "kilometers_per_hour": "90612.2006761158",
                "miles_per_hour": "56302.8976923343"
            },
            "miss_distance": {
                "astronomical": "0.4649681943",
                "lunar": "180.8726275827",
                "kilometers": "69558251.485026141",
                "miles": "43221493.2655211058"
            },
            "orbiting_body": "Earth"
        },
        {
            "close_approach_date": "2013-04-18",
            "close_approach_date_full": "2013-Apr-18 09:04",
            "epoch_date_close_approach": 1366275840000,
            "relative_velocity": {
                "kilometers_per_second": "16.8598648733",
                "kilometers_per_hour": "60695.5135437806",
                "miles_per_hour": "37713.831735023"
            },
            "miss_distance": {
                "astronomical": "0.0606507216",
                "lunar": "23.5931307024",
                "kilometers": "9073218.765322992",
                "miles": "5637836.7108096096"
            },
            "orbiting_body": "Mars"
        },
        {
            "close_approach_date": "2018-12-10",
            "close_approach_date_full": "2018-Dec-10 02:29",
            "epoch_date_close_approach": 1544408940000,
            "relative_velocity": {
                "kilometers_per_second": "11.1870013393",
                "kilometers_per_hour": "40273.2048213914",
                "miles_per_hour": "25024.2032958251"
            },
            "miss_distance": {
                "astronomical": "0.0423676038",
                "lunar": "16.4809978782",
                "kilometers": "6338103.285483906",
                "miles": "3938314.7595176628"
            },
            "orbiting_body": "Earth"
        }
    ],
    "orbital_data": {
        "orbit_id": "16",
        "orbit_determination_date": "2020-09-11 07:41:26",
        "first_observation_date": "2018-11-09",
        "last_observation_date": "2018-12-09",
        "data_arc_in_days": 30,
        "observations_used": 89,
        "orbit_uncertainty": "7",
        "minimum_orbit_intersection": ".0418256",
        "jupiter_tisserand_invariant": "3.680",
        "epoch_osculation": "2459000.5",
        "eccentricity": ".5480412800156647",
        "semi_major_axis": "1.959422184480123",
        "inclination": "3.53029956632474",
        "ascending_node_longitude": "215.59892811",
        "orbital_period": "1001.821754354205",
        "perihelion_distance": ".8855779424065467",
        "perihelion_argument": "268.4373207763798",
        "aphelion_distance": "3.0332664265537",
        "perihelion_time": "2459498.718072381173",
        "mean_anomaly": "180.9676469115602",
        "mean_motion": ".3593453610238915",
        "equinox": "J2000",
        "orbit_class": {
            "orbit_class_type": "APO",
            "orbit_class_description": "Near-Earth asteroid orbits which cross the Earth’s orbit similar to that of 1862 Apollo",
            "orbit_class_range": "a (semi-major axis) > 1.0 AU; q (perihelion) < 1.017 AU"
        }
    },
    "is_sentry_object": false
}